CCSDS_OMM_VERS = 2.0
CREATION_DATE  = 
ORIGINATOR     = 

OBJECT_NAME    = STARLINK-35395
OBJECT_ID      = 2025-232K
CENTER_NAME    = EARTH
REF_FRAME      = TEME
TIME_SYSTEM    = UTC
MEAN_ELEMENT_THEORY = SGP/SGP4

EPOCH          = 2025-11-03T20:00:03.000384
MEAN_MOTION    = 15.53711908
ECCENTRICITY   = .0001308
INCLINATION    = 53.1595
RA_OF_ASC_NODE = 331.1702
ARG_OF_PERICENTER = 76.1036
MEAN_ANOMALY   = 110.7079

EPHEMERIS_TYPE = 0
CLASSIFICATION_TYPE = U
NORAD_CAT_ID   = 66014
ELEMENT_SET_NO = 999
REV_AT_EPOCH   = 328
BSTAR          = -.34653E-1
MEAN_MOTION_DOT = -.2016431E-1
MEAN_MOTION_DDOT = 0

CCSDS_OMM_VERS = 2.0
CREATION_DATE  = 
ORIGINATOR     = 

OBJECT_NAME    = STARLINK-34622
OBJECT_ID      = 2025-232L
CENTER_NAME    = EARTH
REF_FRAME      = TEME
TIME_SYSTEM    = UTC
MEAN_ELEMENT_THEORY = SGP/SGP4

EPOCH          = 2025-11-03T20:00:03.000384
MEAN_MOTION    = 15.53733442
ECCENTRICITY   = .0001485
INCLINATION    = 53.1679
RA_OF_ASC_NODE = 331.1538
ARG_OF_PERICENTER = 81.6782
MEAN_ANOMALY   = 112.7957

EPHEMERIS_TYPE = 0
CLASSIFICATION_TYPE = U
NORAD_CAT_ID   = 66015
ELEMENT_SET_NO = 999
REV_AT_EPOCH   = 318
BSTAR          = -.35343E-1
MEAN_MOTION_DOT = -.2053801E-1
MEAN_MOTION_DDOT = 0

CCSDS_OMM_VERS = 2.0
CREATION_DATE  = 
ORIGINATOR     = 

OBJECT_NAME    = STARLINK-35243
OBJECT_ID      = 2025-232M
CENTER_NAME    = EARTH
REF_FRAME      = TEME
TIME_SYSTEM    = UTC
MEAN_ELEMENT_THEORY = SGP/SGP4

EPOCH          = 2025-11-03T20:00:03.000384
MEAN_MOTION    = 15.53711190
ECCENTRICITY   = .0001408
INCLINATION    = 53.1596
RA_OF_ASC_NODE = 331.1580
ARG_OF_PERICENTER = 78.7583
MEAN_ANOMALY   = 113.8038

EPHEMERIS_TYPE = 0
CLASSIFICATION_TYPE = U
NORAD_CAT_ID   = 66016
ELEMENT_SET_NO = 999
REV_AT_EPOCH   = 330
BSTAR          = -.34629E-1
MEAN_MOTION_DOT = -.2015219E-1
MEAN_MOTION_DDOT = 0

CCSDS_OMM_VERS = 2.0
CREATION_DATE  = 
ORIGINATOR     = 

OBJECT_NAME    = STARLINK-35398
OBJECT_ID      = 2025-232N
CENTER_NAME    = EARTH
REF_FRAME      = TEME
TIME_SYSTEM    = UTC
MEAN_ELEMENT_THEORY = SGP/SGP4

EPOCH          = 2025-11-03T20:00:03.000384
MEAN_MOTION    = 15.53712978
ECCENTRICITY   = .0001293
INCLINATION    = 53.1596
RA_OF_ASC_NODE = 331.1469
ARG_OF_PERICENTER = 75.7141
MEAN_ANOMALY   = 122.5972

EPHEMERIS_TYPE = 0
CLASSIFICATION_TYPE = U
NORAD_CAT_ID   = 66017
ELEMENT_SET_NO = 999
REV_AT_EPOCH   = 321
BSTAR          = -.3468E-1
MEAN_MOTION_DOT = -.2017933E-1
MEAN_MOTION_DDOT = 0

CCSDS_OMM_VERS = 2.0
CREATION_DATE  = 
ORIGINATOR     = 

OBJECT_NAME    = STARLINK-35376
OBJECT_ID      = 2025-232P
CENTER_NAME    = EARTH
REF_FRAME      = TEME
TIME_SYSTEM    = UTC
MEAN_ELEMENT_THEORY = SGP/SGP4

EPOCH          = 2025-11-03T20:00:03.000384
MEAN_MOTION    = 15.53710439
ECCENTRICITY   = .0001352
INCLINATION    = 53.1595
RA_OF_ASC_NODE = 331.1502
ARG_OF_PERICENTER = 77.1986
MEAN_ANOMALY   = 119.1976

EPHEMERIS_TYPE = 0
CLASSIFICATION_TYPE = U
NORAD_CAT_ID   = 66018
ELEMENT_SET_NO = 999
REV_AT_EPOCH   = 330
BSTAR          = -.34619E-1
MEAN_MOTION_DOT = -.2014601E-1
MEAN_MOTION_DDOT = 0

CCSDS_OMM_VERS = 2.0
CREATION_DATE  = 
ORIGINATOR     = 

OBJECT_NAME    = STARLINK-35382
OBJECT_ID      = 2025-232Q
CENTER_NAME    = EARTH
REF_FRAME      = TEME
TIME_SYSTEM    = UTC
MEAN_ELEMENT_THEORY = SGP/SGP4

EPOCH          = 2025-11-03T20:00:03.000384
MEAN_MOTION    = 15.53710824
ECCENTRICITY   = .0001298
INCLINATION    = 53.1596
RA_OF_ASC_NODE = 331.1615
ARG_OF_PERICENTER = 76.9194
MEAN_ANOMALY   = 113.7267

EPHEMERIS_TYPE = 0
CLASSIFICATION_TYPE = U
NORAD_CAT_ID   = 66019
ELEMENT_SET_NO = 999
REV_AT_EPOCH   = 330
BSTAR          = -.34634E-1
MEAN_MOTION_DOT = -.2015373E-1
MEAN_MOTION_DDOT = 0

CCSDS_OMM_VERS = 2.0
CREATION_DATE  = 
ORIGINATOR     = 

OBJECT_NAME    = STARLINK-35430
OBJECT_ID      = 2025-232R
CENTER_NAME    = EARTH
REF_FRAME      = TEME
TIME_SYSTEM    = UTC
MEAN_ELEMENT_THEORY = SGP/SGP4

EPOCH          = 2025-11-03T20:00:03.000384
MEAN_MOTION    = 15.53731809
ECCENTRICITY   = .0001533
INCLINATION    = 53.1696
RA_OF_ASC_NODE = 331.1381
ARG_OF_PERICENTER = 83.2687
MEAN_ANOMALY   = 118.8738

EPHEMERIS_TYPE = 0
CLASSIFICATION_TYPE = U
NORAD_CAT_ID   = 66020
ELEMENT_SET_NO = 999
REV_AT_EPOCH   = 329
BSTAR          = -.35369E-1
MEAN_MOTION_DOT = -.2055086E-1
MEAN_MOTION_DDOT = 0

CCSDS_OMM_VERS = 2.0
CREATION_DATE  = 
ORIGINATOR     = 

OBJECT_NAME    = STARLINK-35432
OBJECT_ID      = 2025-232S
CENTER_NAME    = EARTH
REF_FRAME      = TEME
TIME_SYSTEM    = UTC
MEAN_ELEMENT_THEORY = SGP/SGP4

EPOCH          = 2025-11-03T20:00:03.000384
MEAN_MOTION    = 15.53713335
ECCENTRICITY   = .0001315
INCLINATION    = 53.1591
RA_OF_ASC_NODE = 331.1425
ARG_OF_PERICENTER = 77.7074
MEAN_ANOMALY   = 122.5208

EPHEMERIS_TYPE = 0
CLASSIFICATION_TYPE = U
NORAD_CAT_ID   = 66021
ELEMENT_SET_NO = 999
REV_AT_EPOCH   = 321
BSTAR          = -.34692E-1
MEAN_MOTION_DOT = -.2018564E-1
MEAN_MOTION_DDOT = 0

CCSDS_OMM_VERS = 2.0
CREATION_DATE  = 
ORIGINATOR     = 

OBJECT_NAME    = STARLINK-35340
OBJECT_ID      = 2025-232T
CENTER_NAME    = EARTH
REF_FRAME      = TEME
TIME_SYSTEM    = UTC
MEAN_ELEMENT_THEORY = SGP/SGP4

EPOCH          = 2025-11-03T20:00:03.000384
MEAN_MOTION    = 15.53710175
ECCENTRICITY   = .0001363
INCLINATION    = 53.1596
RA_OF_ASC_NODE = 331.1336
ARG_OF_PERICENTER = 81.9867
MEAN_ANOMALY   = 122.0775

EPHEMERIS_TYPE = 0
CLASSIFICATION_TYPE = U
NORAD_CAT_ID   = 66022
ELEMENT_SET_NO = 999
REV_AT_EPOCH   = 329
BSTAR          = -.34607E-1
MEAN_MOTION_DOT = -.2013955E-1
MEAN_MOTION_DDOT = 0

CCSDS_OMM_VERS = 2.0
CREATION_DATE  = 
ORIGINATOR     = 

OBJECT_NAME    = STARLINK-35394
OBJECT_ID      = 2025-232U
CENTER_NAME    = EARTH
REF_FRAME      = TEME
TIME_SYSTEM    = UTC
MEAN_ELEMENT_THEORY = SGP/SGP4

EPOCH          = 2025-11-03T20:00:03.000384
MEAN_MOTION    = 15.53712745
ECCENTRICITY   = .0001337
INCLINATION    = 53.1594
RA_OF_ASC_NODE = 331.1292
ARG_OF_PERICENTER = 77.5260
MEAN_ANOMALY   = 128.4526

EPHEMERIS_TYPE = 0
CLASSIFICATION_TYPE = U
NORAD_CAT_ID   = 66023
ELEMENT_SET_NO = 999
REV_AT_EPOCH   = 329
BSTAR          = -.34669E-1
MEAN_MOTION_DOT = -.201734E-1
MEAN_MOTION_DDOT = 0

CCSDS_OMM_VERS = 2.0
CREATION_DATE  = 
ORIGINATOR     = 

OBJECT_NAME    = STARLINK-35410
OBJECT_ID      = 2025-232V
CENTER_NAME    = EARTH
REF_FRAME      = TEME
TIME_SYSTEM    = UTC
MEAN_ELEMENT_THEORY = SGP/SGP4

EPOCH          = 2025-11-03T20:00:03.000384
MEAN_MOTION    = 15.53712099
ECCENTRICITY   = .0001386
INCLINATION    = 53.1596
RA_OF_ASC_NODE = 331.1214
ARG_OF_PERICENTER = 79.2848
MEAN_ANOMALY   = 130.5280

EPHEMERIS_TYPE = 0
CLASSIFICATION_TYPE = U
NORAD_CAT_ID   = 66024
ELEMENT_SET_NO = 999
REV_AT_EPOCH   = 329
BSTAR          = -.3466E-1
MEAN_MOTION_DOT = -.2016882E-1
MEAN_MOTION_DDOT = 0

CCSDS_OMM_VERS = 2.0
CREATION_DATE  = 
ORIGINATOR     = 

OBJECT_NAME    = STARLINK-35280
OBJECT_ID      = 2025-232W
CENTER_NAME    = EARTH
REF_FRAME      = TEME
TIME_SYSTEM    = UTC
MEAN_ELEMENT_THEORY = SGP/SGP4

EPOCH          = 2025-11-03T20:00:03.000384
MEAN_MOTION    = 15.53712174
ECCENTRICITY   = .0001266
INCLINATION    = 53.1596
RA_OF_ASC_NODE = 331.1249
ARG_OF_PERICENTER = 78.9526
MEAN_ANOMALY   = 128.9438

EPHEMERIS_TYPE = 0
CLASSIFICATION_TYPE = U
NORAD_CAT_ID   = 66025
ELEMENT_SET_NO = 999
REV_AT_EPOCH   = 322
BSTAR          = -.3466E-1
MEAN_MOTION_DOT = -.2016789E-1
MEAN_MOTION_DDOT = 0

