STARLINK-35395          
1 66014U 25232K   25307.83336806 -.02016431  00000+0 -34653-1 0  9995
2 66014  53.1595 331.1702 0001308  76.1036 110.7079 15.53711908  3287
STARLINK-34622          
1 66015U 25232L   25307.83336806 -.02053801  00000+0 -35343-1 0  9995
2 66015  53.1679 331.1538 0001485  81.6782 112.7957 15.53733442  3186
STARLINK-35243          
1 66016U 25232M   25307.83336806 -.02015219  00000+0 -34629-1 0  9993
2 66016  53.1596 331.1580 0001408  78.7583 113.8038 15.53711190  3305
STARLINK-35398          
1 66017U 25232N   25307.83336806 -.02017933  00000+0 -34680-1 0  9996
2 66017  53.1596 331.1469 0001293  75.7141 122.5972 15.53712978  3210
STARLINK-35376          
1 66018U 25232P   25307.83336806 -.02014601  00000+0 -34619-1 0  9998
2 66018  53.1595 331.1502 0001352  77.1986 119.1976 15.53710439  3303
STARLINK-35382          
1 66019U 25232Q   25307.83336806 -.02015373  00000+0 -34634-1 0  9993
2 66019  53.1596 331.1615 0001298  76.9194 113.7267 15.53710824  3308
STARLINK-35430          
1 66020U 25232R   25307.83336806 -.02055086  00000+0 -35369-1 0  9996
2 66020  53.1696 331.1381 0001533  83.2687 118.8738 15.53731809  3294
STARLINK-35432          
1 66021U 25232S   25307.83336806 -.02018564  00000+0 -34692-1 0  9995
2 66021  53.1591 331.1425 0001315  77.7074 122.5208 15.53713335  3214
STARLINK-35340          
1 66022U 25232T   25307.83336806 -.02013955  00000+0 -34607-1 0  9991
2 66022  53.1596 331.1336 0001363  81.9867 122.0775 15.53710175  3292
STARLINK-35394          
1 66023U 25232U   25307.83336806 -.02017340  00000+0 -34669-1 0  9992
2 66023  53.1594 331.1292 0001337  77.5260 128.4526 15.53712745  3290
STARLINK-35410          
1 66024U 25232V   25307.83336806 -.02016882  00000+0 -34660-1 0  9994
2 66024  53.1596 331.1214 0001386  79.2848 130.5280 15.53712099  3295
STARLINK-35280          
1 66025U 25232W   25307.83336806 -.02016789  00000+0 -34660-1 0  9991
2 66025  53.1596 331.1249 0001266  78.9526 128.9438 15.53712174  3223
